{
  "type": "FeatureCollection",
  "features": [
    {
      "type": "Feature",
      "properties": {
        "norad_id": 63632,
        "name": "SHENZHOU-20 (SZ-20)",
        "group": "stations",
        "lat": -3.0088087703048623,
        "lon": 62.826631359578826,
        "alt_km": 385.53815808854597,
        "timestamp": "2025-12-04T13:51:59.246593+00:00",
        "meta_object_name": "SHENZHOU-20 (SZ-20)",
        "meta_object_id": "2025-082A",
        "meta_epoch": "2025-12-04T07:44:04.873632",
        "meta_mean_motion": 15.58643052,
        "meta_eccentricity": 0.00099613,
        "meta_inclination": 41.4682,
        "meta_ra_of_asc_node": 67.7893,
        "meta_arg_of_pericenter": 326.0847,
        "meta_mean_anomaly": 33.9353,
        "meta_ephemeris_type": 0,
        "meta_classification_type": "U",
        "meta_norad_cat_id": 63632,
        "meta_element_set_no": 999,
        "meta_rev_at_epoch": 25530,
        "meta_bstar": 0.00047338698,
        "meta_mean_motion_dot": 0.00037313,
        "meta_mean_motion_ddot": 0,
        "tle_line1": "1 63632U 25082A   25338.32227863  .00037313  00000+0  47339-3 0  9996",
        "tle_line2": "2 63632  41.4682  67.7893 0009961 326.0847  33.9353 15.58643052255302"
      },
      "geometry": {
        "type": "Point",
        "coordinates": [
          62.826631359578826,
          -3.0088087703048623
        ]
      }
    },
    {
      "type": "Feature",
      "properties": {
        "norad_id": 64751,
        "name": "PROGRESS-MS 31",
        "group": "stations",
        "lat": -9.38131716504838,
        "lon": 10.408533869038227,
        "alt_km": 418.19875201780997,
        "timestamp": "2025-12-04T13:51:59.246608+00:00",
        "meta_object_name": "PROGRESS-MS 31",
        "meta_object_id": "2025-146A",
        "meta_epoch": "2025-12-04T02:12:18.455328",
        "meta_mean_motion": 15.49293095,
        "meta_eccentricity": 0.00036281,
        "meta_inclination": 51.6302,
        "meta_ra_of_asc_node": 185.2932,
        "meta_arg_of_pericenter": 200.9086,
        "meta_mean_anomaly": 159.1754,
        "meta_ephemeris_type": 0,
        "meta_classification_type": "U",
        "meta_norad_cat_id": 64751,
        "meta_element_set_no": 999,
        "meta_rev_at_epoch": 675,
        "meta_bstar": 0.00029177423,
        "meta_mean_motion_dot": 0.00015824,
        "meta_mean_motion_ddot": 0,
        "tle_line1": "1 64751U 25146A   25338.09188027  .00015824  00000+0  29177-3 0  9995",
        "tle_line2": "2 64751  51.6302 185.2932 0003628 200.9086 159.1754 15.49293095  6753"
      },
      "geometry": {
        "type": "Point",
        "coordinates": [
          10.408533869038227,
          -9.38131716504838
        ]
      }
    },
    {
      "type": "Feature",
      "properties": {
        "norad_id": 64786,
        "name": "TIANZHOU-9",
        "group": "stations",
        "lat": -3.0088076942052315,
        "lon": 62.82663258190805,
        "alt_km": 385.5381580431376,
        "timestamp": "2025-12-04T13:51:59.246618+00:00",
        "meta_object_name": "TIANZHOU-9",
        "meta_object_id": "2025-149A",
        "meta_epoch": "2025-12-04T07:44:04.873632",
        "meta_mean_motion": 15.58643052,
        "meta_eccentricity": 0.00099613,
        "meta_inclination": 41.4682,
        "meta_ra_of_asc_node": 67.7893,
        "meta_arg_of_pericenter": 326.0847,
        "meta_mean_anomaly": 33.9353,
        "meta_ephemeris_type": 0,
        "meta_classification_type": "U",
        "meta_norad_cat_id": 64786,
        "meta_element_set_no": 999,
        "meta_rev_at_epoch": 25530,
        "meta_bstar": 0.00047338698,
        "meta_mean_motion_dot": 0.00037313,
        "meta_mean_motion_ddot": 0,
        "tle_line1": "1 64786U 25149A   25338.32227863  .00037313  00000+0  47339-3 0  9991",
        "tle_line2": "2 64786  41.4682  67.7893 0009961 326.0847  33.9353 15.58643052255303"
      },
      "geometry": {
        "type": "Point",
        "coordinates": [
          62.82663258190805,
          -3.0088076942052315
        ]
      }
    },
    {
      "type": "Feature",
      "properties": {
        "norad_id": 65077,
        "name": "CREW DRAGON 11",
        "group": "stations",
        "lat": -9.381318370339915,
        "lon": 10.408534857193654,
        "alt_km": 418.1987521385945,
        "timestamp": "2025-12-04T13:51:59.246632+00:00",
        "meta_object_name": "CREW DRAGON 11",
        "meta_object_id": "2025-166A",
        "meta_epoch": "2025-12-04T02:12:18.455328",
        "meta_mean_motion": 15.49293095,
        "meta_eccentricity": 0.00036281,
        "meta_inclination": 51.6302,
        "meta_ra_of_asc_node": 185.2932,
        "meta_arg_of_pericenter": 200.9086,
        "meta_mean_anomaly": 159.1754,
        "meta_ephemeris_type": 0,
        "meta_classification_type": "U",
        "meta_norad_cat_id": 65077,
        "meta_element_set_no": 999,
        "meta_rev_at_epoch": 214,
        "meta_bstar": 0.00029177423,
        "meta_mean_motion_dot": 0.00015824,
        "meta_mean_motion_ddot": 0,
        "tle_line1": "1 65077U 25166A   25338.09188027  .00015824  00000+0  29177-3 0  9999",
        "tle_line2": "2 65077  51.6302 185.2932 0003628 200.9086 159.1754 15.49293095  2144"
      },
      "geometry": {
        "type": "Point",
        "coordinates": [
          10.408534857193654,
          -9.381318370339915
        ]
      }
    },
    {
      "type": "Feature",
      "properties": {
        "norad_id": 65304,
        "name": "DRAGON CRS-33",
        "group": "stations",
        "lat": -9.381318872545059,
        "lon": 10.408535268925347,
        "alt_km": 418.1987521889205,
        "timestamp": "2025-12-04T13:51:59.246642+00:00",
        "meta_object_name": "DRAGON CRS-33",
        "meta_object_id": "2025-186A",
        "meta_epoch": "2025-12-04T02:12:18.455328",
        "meta_mean_motion": 15.49293095,
        "meta_eccentricity": 0.00036281,
        "meta_inclination": 51.6302,
        "meta_ra_of_asc_node": 185.2932,
        "meta_arg_of_pericenter": 200.9086,
        "meta_mean_anomaly": 159.1754,
        "meta_ephemeris_type": 0,
        "meta_classification_type": "U",
        "meta_norad_cat_id": 65304,
        "meta_element_set_no": 999,
        "meta_rev_at_epoch": 11,
        "meta_bstar": 0.00029177423,
        "meta_mean_motion_dot": 0.00015824,
        "meta_mean_motion_ddot": 0,
        "tle_line1": "1 65304U 25186A   25338.09188027  .00015824  00000+0  29177-3 0  9994",
        "tle_line2": "2 65304  51.6302 185.2932 0003628 200.9086 159.1754 15.49293095   112"
      },
      "geometry": {
        "type": "Point",
        "coordinates": [
          10.408535268925347,
          -9.381318872545059
        ]
      }
    },
    {
      "type": "Feature",
      "properties": {
        "norad_id": 65586,
        "name": "PROGRESS-MS 32",
        "group": "stations",
        "lat": -9.381319424969814,
        "lon": 10.408535721829482,
        "alt_km": 418.1987522442814,
        "timestamp": "2025-12-04T13:51:59.246653+00:00",
        "meta_object_name": "PROGRESS-MS 32",
        "meta_object_id": "2025-204A",
        "meta_epoch": "2025-12-04T02:12:18.455328",
        "meta_mean_motion": 15.49293095,
        "meta_eccentricity": 0.00036281,
        "meta_inclination": 51.6302,
        "meta_ra_of_asc_node": 185.2932,
        "meta_arg_of_pericenter": 200.9086,
        "meta_mean_anomaly": 159.1754,
        "meta_ephemeris_type": 0,
        "meta_classification_type": "U",
        "meta_norad_cat_id": 65586,
        "meta_element_set_no": 999,
        "meta_rev_at_epoch": 27,
        "meta_bstar": 0.00029177423,
        "meta_mean_motion_dot": 0.00015824,
        "meta_mean_motion_ddot": 0,
        "tle_line1": "1 65586U 25204A   25338.09188027  .00015824  00000+0  29177-3 0  9997",
        "tle_line2": "2 65586  51.6302 185.2932 0003628 200.9086 159.1754 15.49293095   271"
      },
      "geometry": {
        "type": "Point",
        "coordinates": [
          10.408535721829482,
          -9.381319424969814
        ]
      }
    },
    {
      "type": "Feature",
      "properties": {
        "norad_id": 65616,
        "name": "CYGNUS NG-23",
        "group": "stations",
        "lat": -9.381319927174014,
        "lon": 10.408536133560409,
        "alt_km": 418.1987522946065,
        "timestamp": "2025-12-04T13:51:59.246663+00:00",
        "meta_object_name": "CYGNUS NG-23",
        "meta_object_id": "2025-208A",
        "meta_epoch": "2025-12-04T02:12:18.455328",
        "meta_mean_motion": 15.49293095,
        "meta_eccentricity": 0.00036281,
        "meta_inclination": 51.6302,
        "meta_ra_of_asc_node": 185.2932,
        "meta_arg_of_pericenter": 200.9086,
        "meta_mean_anomaly": 159.1754,
        "meta_ephemeris_type": 0,
        "meta_classification_type": "U",
        "meta_norad_cat_id": 65616,
        "meta_element_set_no": 999,
        "meta_rev_at_epoch": 22,
        "meta_bstar": 0.00029177423,
        "meta_mean_motion_dot": 0.00015824,
        "meta_mean_motion_ddot": 0,
        "tle_line1": "1 65616U 25208A   25338.09188027  .00015824  00000+0  29177-3 0  9995",
        "tle_line2": "2 65616  51.6302 185.2932 0003628 200.9086 159.1754 15.49293095   220"
      },
      "geometry": {
        "type": "Point",
        "coordinates": [
          10.408536133560409,
          -9.381319927174014
        ]
      }
    }
  ]
}